SAUDISAT 1C (SO-50)     
1 27607U 02058C   26199.91526245  .00000381  00000+0  63019-4 0  9992
2 27607  64.5520  30.8141 0074413 256.5934 102.6870 14.83102458269160
SAUDISAT 2              
1 28371U 04025F   26200.24408345  .00000092  00000+0  31573-4 0  9995
2 28371  98.5523 201.0566 0024320 195.5119 164.5336 14.56699470170419
SAUDISAT 3              
1 31118U 07012B   26199.81153754  .00000089  00000+0  22514-4 0  9999
2 31118  98.1469 150.2358 0015767 123.9606 236.3101 14.71441294 32390
PISAT                   
1 41784U 16059B   26200.22588394  .00000437  00000+0  82048-4 0  9995
2 41784  97.8193 199.3045 0030544 102.5223 257.9402 14.69033621524448
FLYING LAPTOP           
1 42831U 17042G   26200.31234836  .00001751  00000+0  14004-3 0  9997
2 42831  97.4831 354.6403 0019475  19.4544 340.7420 15.01328506491274
SALSAT                  
1 46495U 20068K   26200.25708758  .00003822  00000+0  13357-3 0  9992
2 46495  97.8864 205.2860 0009659 178.4698 181.6573 15.30204681320261
